GLONASS-K 2             
1 40315U 14075A   24241.39905738  .00000051  00000+0  00000+0 0  9991
2 40315  63.6226 213.1653 0020810 211.0988 148.7674  2.13101392 75833
GPS BIIF-9              
1 40534U 15013A   24241.43172167  .00000052  00000+0  00000+0 0  9995
2 40534  53.3231 231.4026 0089983  30.1719 330.3459  2.00561173 68636
GSAT0203 (GALILEO 7)    
1 40544U 15017A   24240.47907799 -.00000110  00000+0  00000+0 0  9996
2 40544  56.9230 359.5326 0003503 235.6827 124.2874  1.70476196 57978
GSAT0204 (GALILEO 8)    
1 40545U 15017B   24241.32003690 -.00000112  00000+0  00000+0 0  9991
2 40545  56.9295 359.5255 0003905 220.4358 139.5373  1.70475799 21037
GPS BIIF-10             
1 40730U 15033A   24241.59359621 -.00000024  00000+0  00000+0 0  9994
2 40730  54.5321 294.0991 0095000  19.7351 340.6989  2.00563298 66804
METEOSAT-11 (MSG-4)     
1 40732U 15034A   24241.96471201  .00000046  00000+0  00000+0 0  9990
2 40732   1.5573  70.4082 0000854 170.2768  93.6054  1.00267503   638
GSAT0205 (GALILEO 9)    
1 40889U 15045A   24240.50155775  .00000054  00000+0  00000+0 0  9998
2 40889  55.1887 239.7982 0003105   7.0876 352.9294  1.70473355 55786
GSAT0206 (GALILEO 10)   
1 40890U 15045B   24241.30880020  .00000050  00000+0  00000+0 0  9993
2 40890  55.1880 239.7713 0001944 329.3422  30.6592  1.70473349 55828
GPS BIIF-11             
1 41019U 15062A   24241.65382834 -.00000036  00000+0  00000+0 0  9999
2 41019  56.4640  56.2689 0097435 224.5201 134.7327  2.00562616 64647
ELEKTRO-L 2             
1 41105U 15074A   24242.06458803 -.00000133  00000+0  00000+0 0  9992
2 41105   5.0237  78.5765 0002570 155.6566 112.2754  1.00271170 31922
GSAT0209 (GALILEO 12)   
1 41174U 15079A   24240.89219037 -.00000029  00000+0  00000+0 0  9990
2 41174  55.4541 119.3440 0003137 346.8782  13.1835  1.70473845 53555
GSAT0208 (GALILEO 11)   
1 41175U 15079B   24239.35222546 -.00000026  00000+0  00000+0 0  9996
2 41175  55.4513 119.3841 0002800 343.7755  16.2866  1.70473707 53940
GPS BIIF-12             
1 41328U 16007A   24240.23896783 -.00000040  00000+0  00000+0 0  9993
2 41328  55.1523 115.6267 0080130 238.6054 120.6760  2.00558330 62623
GSAT0211 (GALILEO 14)   
1 41549U 16030A   24240.64791235  .00000054  00000+0  00000+0 0  9999
2 41549  55.3370 239.8083 0003450 312.2619  47.7217  1.70473437 51445
INSAT-3DR               
1 41752U 16054A   24241.87202312 -.00000093  00000+0  00000+0 0  9994
2 41752   0.0090 129.4175 0011787 133.0645 103.0202  1.00271305 29227
GSAT0207 (GALILEO 15)   
1 41859U 16069A   24241.18575150 -.00000029  00000+0  00000+0 0  9994
2 41859  55.1191 119.3197 0003287 318.8374  41.2080  1.70473876 48185
GSAT0212 (GALILEO 16)   
1 41860U 16069B   24241.62656694 -.00000028  00000+0  00000+0 0  9997
2 41860  55.1173 119.3038 0002733   8.8016 351.2746  1.70473981 48444
GSAT0213 (GALILEO 17)   
1 41861U 16069C   24237.88896581 -.00000016  00000+0  00000+0 0  9999
2 41861  55.1177 119.4145 0002880 291.4876  68.5583  1.70474319 48247
GSAT0214 (GALILEO 18)   
1 41862U 16069D   24241.55371928 -.00000028  00000+0  00000+0 0  9995
2 41862  55.1180 119.3059 0001894 301.0554  58.9971  1.70474038 48433
GOES 16                 
1 41866U 16071A   24241.90653993 -.00000264  00000+0  00000+0 0  9998
2 41866   0.0832 275.7662 0000447 303.8846   9.0974  1.00271496 28517
GSAT-17                 
1 42815U 17040B   24241.86857321 -.00000273  00000+0  00000+0 0  9996
2 42815   0.0606 282.4307 0003597 328.7606 132.5408  1.00270284 26191
GSAT0215 (GALILEO 19)   
1 43055U 17079A   24239.11006854  .00000056  00000+0  00000+0 0  9995
2 43055  55.3144 239.6716 0003531 264.2227  95.7468  1.70474091 41739
GSAT0216 (GALILEO 20)   
1 43056U 17079B   24239.98830151  .00000055  00000+0  00000+0 0  9995
2 43056  55.3150 239.6472 0004918 273.0362  86.9192  1.70474233 41738
GSAT0217 (GALILEO 21)   
1 43057U 17079C   24241.38196391  .00000050  00000+0  00000+0 0  9999
2 43057  55.3129 239.6075 0004186 284.5441  75.4219  1.70474182 41776
GSAT0218 (GALILEO 22)   
1 43058U 17079D   24239.84227305  .00000056  00000+0  00000+0 0  9994
2 43058  55.3129 239.6475 0005407 270.1384  89.8110  1.70474141 41779
GOES 17                 
1 43226U 18022A   24241.61455785 -.00000106  00000+0  00000+0 0  9990
2 43226   0.0230 310.7185 0002038 253.3141 249.8051  1.00272139 23831
GSAT0221 (GALILEO 25)   
1 43564U 18060A   24240.91656309 -.00000111  00000+0  00000+0 0  9990
2 43564  57.3030 359.5392 0003208 259.3792 100.5871  1.70476083 37949
GSAT0222 (GALILEO 26)   
1 43565U 18060B   24238.78885352 -.00000104  00000+0  00000+0 0  9997
2 43565  57.3061 359.5984 0003551 221.0124 138.9661  1.70475785 37958
GSAT0219 (GALILEO 23)   
1 43566U 18060C   24241.35695367 -.00000112  00000+0  00000+0 0  9999
2 43566  57.3065 359.5312 0002275 261.5574  98.4187  1.70476165 37976
GSAT0220 (GALILEO 24)   
1 43567U 18060D   24241.57763041 -.00000113  00000+0  00000+0 0  9990
2 43567  57.3059 359.5249 0003012 257.3773 102.5906  1.70475903 37967
BEIDOU-3 M13            
1 43622U 18072A   24240.15606383 -.00000031  00000+0  00000+0 0  9992
2 43622  56.0496  84.5122 0004513 312.8302  47.2025  1.86231442 40389
BEIDOU-3 M14            
1 43623U 18072B   24241.09543288 -.00000025  00000+0  00000+0 0  9994
2 43623  56.0526  84.4742 0003554   2.9157 357.1593  1.86231404 40392
GPS BIII-1              
1 43873U 18109A   24241.90150674 -.00000037  00000+0  00000+0 0  9998
2 43873  55.3226 118.1533 0030097 192.6459 178.7117  2.00559111 41895
METEOR-M2 2             
1 44387U 19038A   24241.87861678  .00000547  00000+0  25807-3 0  9991
2 44387  98.8341 211.4132 0002391 100.6364 259.5083 14.23945949267737
GPS BIII-2              
1 44506U 19056A   24241.76416584 -.00000116  00000+0  00000+0 0  9991
2 44506  55.8368 357.2147 0046062 190.3518 346.8696  2.00572584 36880
BEIDOU-3 M23            
1 44542U 19061A   24241.47247293  .00000023  00000+0  00000+0 0  9990
2 44542  54.4382 204.9171 0008334 348.0349  11.9152  1.86229316 33542
BEIDOU-3 M24            
1 44543U 19061B   24241.86944201  .00000016  00000+0  00000+0 0  9999
2 44543  54.4368 204.8723 0005698 330.6452 207.9949  1.86229509 33557
BEIDOU-3 M21            
1 44793U 19078A   24241.85483779 -.00000097  00000+0  00000+0 0  9991
2 44793  54.5061 322.8409 0004596  24.8092 335.2601  1.86232215 32406
BEIDOU-3 M22            
1 44794U 19078B   24239.83665402 -.00000099  00000+0  00000+0 0  9994
2 44794  54.4812 322.8857 0002532  14.7695 345.2837  1.86232595 32371
ELEKTRO-L 3             
1 44903U 19095A   24241.86501111 -.00000112  00000+0  00000+0 0  9993
2 44903   0.0307  74.6194 0001198 149.0658 141.2524  1.00270626 17107
GPS BIII-3              
1 45854U 20041A   24241.60821559 -.00000039  00000+0  00000+0 0  9993
2 45854  56.1857  54.5836 0046418 193.1928 166.3744  2.00572090 30848
COSMOS 2547             
1 46805U 20075A   24240.57040380  .00000066  00000+0  00000+0 0  9996
2 46805  64.6016 214.4803 0008711 241.8220 118.0826  2.13102826 29873
GPS BIII-4              
1 46826U 20078A   24241.64218580  .00000055  00000+0  00000+0 0  9998
2 46826  54.1568 237.4631 0049131 198.7914 161.6378  2.00560325 28320
GSAT0223 (GALILEO 27)   
1 49809U 21116A   24240.26319760 -.00000109  00000+0  00000+0 0  9996
2 49809  57.2957 359.4542 0003351 191.3359 172.4159  1.70476035 16955
GSAT0224 (GALILEO 28)   
1 49810U 21116B   24238.83396872 -.00000104  00000+0  00000+0 0  9992
2 49810  57.2973 359.4912 0002805 184.3839 134.7311  1.70475925 16941
GOES 18                 
1 51850U 22021A   24240.74971147  .00000083  00000+0  00000+0 0  9997
2 51850   0.0063  87.0002 0000339 110.1661 272.1784  1.00270902   594
COSMOS 2557 (706K)      
1 52984U 22075A   24240.26670872 -.00000095  00000+0  00000+0 0  9997
2 52984  64.6424 337.6075 0012032 273.7203  86.1731  2.13102262 16674
METEOR-M2 3             
1 57166U 23091A   24241.91413063  .00000094  00000+0  60168-4 0  9997
2 57166  98.7069 295.9149 0002850 281.7632  78.3227 14.23918118 60978
COSMOS 2569 (703K)      
1 57517U 23114A   24241.82511527  .00000006  00000+0  00000+0 0  9994
2 57517  64.9482  94.8514 0009060 296.5705  63.4176  2.13103875  8252
METEOR-M2 4             
1 59051U 24039A   24242.15943571  .00000184  00000+0  10234-3 0  9992
2 59051  98.6044 202.2794 0005866 274.9936  85.0572 14.22256825 25869
GSAT0225 (GALILEO 29)   
1 59598U 24079A   24240.38550894 -.00000031  00000+0  00000+0 0  9995
2 59598  54.7348 119.5165 0001401 188.9977 353.0974  1.70474142  2083
GSAT0227 (GALILEO 30)   
1 59600U 24079C   24239.68561198 -.00000029  00000+0  00000+0 0  9996
2 59600  54.7299 119.5373 0001935  99.8999 260.1915  1.70474182  2121
CRE (WAAS/PRN 138)      
1 28868U 05036A   24241.68553911 -.00000090  00000+0  00000+0 0  9995
2 28868   2.6155  84.7416 0003029  52.9545 339.1762  1.00272131 39861
IOR-W (EGNOS/PRN 126)   
1 28899U 05044A   24241.87847757 -.00000275  00000+0  00000+0 0  9998
2 28899   4.2694  42.7058 0002118 143.9038 250.7186  1.00271092 68914
GSAT-8 (GAGAN/PRN 127)  
1 37605U 11022A   24241.92966185  .00000069  00000+0  00000+0 0  9999
2 37605   0.4229  90.5315 0005452 145.4803 131.3771  1.00272251 46625
LUCH 5A (SDCM/PRN 140)  
1 37951U 11074B   24241.88308223 -.00000065  00000+0  00000+0 0  9995
2 37951   7.0684  83.8133 0004106  77.1616 301.4880  1.00274215 46463
SES-5 (EGNOS/PRN 136)   
1 38652U 12036A   24241.67896319  .00000018  00000+0  00000+0 0  9995
2 38652   0.0665 297.7028 0001987 230.7249  58.3476  1.00271780 37896
GSAT-10 (GAGAN/PRN 128) 
1 38779U 12051B   24241.15115476 -.00000179  00000+0  00000+0 0  9992
2 38779   0.0797 267.1570 0001512 359.2969 207.8080  1.00272559 43518
LUCH 5B (SDCM/PRN 125)  
1 38977U 12061A   24241.77519964 -.00000152  00000+0  00000+0 0  9992
2 38977   9.0456  56.0503 0006173 130.2639  53.9446  1.00271355 43013
